[{"OBJECT_NAME":"ALOS (DAICHI)","OBJECT_ID":"2006-002A","EPOCH":"2026-03-23T04:28:05.875104","MEAN_MOTION":14.69850625,"ECCENTRICITY":7.074e-5,"INCLINATION":98.1241,"RA_OF_ASC_NODE":38.0761,"ARG_OF_PERICENTER":93.3836,"MEAN_ANOMALY":266.7451,"EPHEMERIS_TYPE":0,"CLASSIFICATION_TYPE":"U","NORAD_CAT_ID":28931,"ELEMENT_SET_NO":999,"REV_AT_EPOCH":7546,"BSTAR":0.00025441133,"MEAN_MOTION_DOT":1.471e-5,"MEAN_MOTION_DDOT":0},{"OBJECT_NAME":"H-2A R/B","OBJECT_ID":"2006-002B","EPOCH":"2026-03-23T03:14:28.595616","MEAN_MOTION":15.16709616,"ECCENTRICITY":0.00522375,"INCLINATION":98.2446,"RA_OF_ASC_NODE":230.3198,"ARG_OF_PERICENTER":194.8231,"MEAN_ANOMALY":165.1472,"EPHEMERIS_TYPE":0,"CLASSIFICATION_TYPE":"U","NORAD_CAT_ID":28932,"ELEMENT_SET_NO":999,"REV_AT_EPOCH":9647,"BSTAR":0.00063146935,"MEAN_MOTION_DOT":0.00012747,"MEAN_MOTION_DDOT":0},{"OBJECT_NAME":"RESURS-DK 1","OBJECT_ID":"2006-021A","EPOCH":"2026-03-22T18:14:11.196384","MEAN_MOTION":15.12829789,"ECCENTRICITY":6.952e-5,"INCLINATION":69.9339,"RA_OF_ASC_NODE":203.2124,"ARG_OF_PERICENTER":102.1613,"MEAN_ANOMALY":257.9631,"EPHEMERIS_TYPE":0,"CLASSIFICATION_TYPE":"U","NORAD_CAT_ID":29228,"ELEMENT_SET_NO":999,"REV_AT_EPOCH":8950,"BSTAR":0.00018044606,"MEAN_MOTION_DOT":3.071e-5,"MEAN_MOTION_DDOT":0},{"OBJECT_NAME":"CZ-4B R/B","OBJECT_ID":"2006-046C","EPOCH":"2026-03-23T03:09:29.066688","MEAN_MOTION":15.17037835,"ECCENTRICITY":0.00322209,"INCLINATION":97.5564,"RA_OF_ASC_NODE":127.0038,"ARG_OF_PERICENTER":218.7002,"MEAN_ANOMALY":141.1922,"EPHEMERIS_TYPE":0,"CLASSIFICATION_TYPE":"U","NORAD_CAT_ID":29507,"ELEMENT_SET_NO":999,"REV_AT_EPOCH":6208,"BSTAR":0.00034031286,"MEAN_MOTION_DOT":6.752e-5,"MEAN_MOTION_DDOT":0},{"OBJECT_NAME":"CZ-2C R/B","OBJECT_ID":"2007-010B","EPOCH":"2026-03-23T04:21:54.946080","MEAN_MOTION":14.20250877,"ECCENTRICITY":0.00579009,"INCLINATION":98.3992,"RA_OF_ASC_NODE":194.7853,"ARG_OF_PERICENTER":254.608,"MEAN_ANOMALY":104.8696,"EPHEMERIS_TYPE":0,"CLASSIFICATION_TYPE":"U","NORAD_CAT_ID":31114,"ELEMENT_SET_NO":999,"REV_AT_EPOCH":98163,"BSTAR":8.3594232e-5,"MEAN_MOTION_DOT":1.4e-6,"MEAN_MOTION_DDOT":0},{"OBJECT_NAME":"COSMO-SKYMED 1","OBJECT_ID":"2007-023A","EPOCH":"2026-03-23T05:41:19.487040","MEAN_MOTION":14.9663529,"ECCENTRICITY":0.00011516,"INCLINATION":97.888,"RA_OF_ASC_NODE":273.3795,"ARG_OF_PERICENTER":87.0771,"MEAN_ANOMALY":273.0582,"EPHEMERIS_TYPE":0,"CLASSIFICATION_TYPE":"U","NORAD_CAT_ID":31598,"ELEMENT_SET_NO":999,"REV_AT_EPOCH":1693,"BSTAR":0.00031254963,"MEAN_MOTION_DOT":3.503e-5,"MEAN_MOTION_DDOT":0},{"OBJECT_NAME":"COSMOS 2428","OBJECT_ID":"2007-029A","EPOCH":"2026-03-23T06:27:17.262720","MEAN_MOTION":14.12947934,"ECCENTRICITY":0.00096067,"INCLINATION":70.9441,"RA_OF_ASC_NODE":174.8434,"ARG_OF_PERICENTER":263.1781,"MEAN_ANOMALY":96.8247,"EPHEMERIS_TYPE":0,"CLASSIFICATION_TYPE":"U","NORAD_CAT_ID":31792,"ELEMENT_SET_NO":999,"REV_AT_EPOCH":96601,"BSTAR":2.6127765e-5,"MEAN_MOTION_DOT":1.0e-8,"MEAN_MOTION_DDOT":0},{"OBJECT_NAME":"SL-16 R/B","OBJECT_ID":"2007-029B","EPOCH":"2026-03-23T05:00:31.411296","MEAN_MOTION":14.14841371,"ECCENTRICITY":0.00024674,"INCLINATION":70.9756,"RA_OF_ASC_NODE":143.9683,"ARG_OF_PERICENTER":276.7401,"MEAN_ANOMALY":143.3902,"EPHEMERIS_TYPE":0,"CLASSIFICATION_TYPE":"U","NORAD_CAT_ID":31793,"ELEMENT_SET_NO":999,"REV_AT_EPOCH":96728,"BSTAR":0.00016089263,"MEAN_MOTION_DOT":2.63e-6,"MEAN_MOTION_DDOT":0},{"OBJECT_NAME":"KORONAS-FOTON","OBJECT_ID":"2009-003A","EPOCH":"2026-03-23T05:58:39.882144","MEAN_MOTION":15.43666791,"ECCENTRICITY":0.00118107,"INCLINATION":82.4277,"RA_OF_ASC_NODE":261.7744,"ARG_OF_PERICENTER":105.6213,"MEAN_ANOMALY":254.6339,"EPHEMERIS_TYPE":0,"CLASSIFICATION_TYPE":"U","NORAD_CAT_ID":33504,"ELEMENT_SET_NO":999,"REV_AT_EPOCH":94783,"BSTAR":0.00037573934,"MEAN_MOTION_DOT":0.00017021,"MEAN_MOTION_DDOT":0},{"OBJECT_NAME":"CZ-2C R/B","OBJECT_ID":"2011-030B","EPOCH":"2026-03-23T02:42:21.956832","MEAN_MOTION":14.81269457,"ECCENTRICITY":0.005135,"INCLINATION":97.8569,"RA_OF_ASC_NODE":39.1095,"ARG_OF_PERICENTER":307.8568,"MEAN_ANOMALY":62.416,"EPHEMERIS_TYPE":0,"CLASSIFICATION_TYPE":"U","NORAD_CAT_ID":37731,"ELEMENT_SET_NO":999,"REV_AT_EPOCH":79208,"BSTAR":0.00021031278,"MEAN_MOTION_DOT":1.622e-5,"MEAN_MOTION_DDOT":0},{"OBJECT_NAME":"H-2A R/B","OBJECT_ID":"2012-025E","EPOCH":"2026-03-22T20:16:48.889056","MEAN_MOTION":14.9525535,"ECCENTRICITY":0.00429324,"INCLINATION":98.4752,"RA_OF_ASC_NODE":49.9468,"ARG_OF_PERICENTER":269.7267,"MEAN_ANOMALY":89.9031,"EPHEMERIS_TYPE":0,"CLASSIFICATION_TYPE":"U","NORAD_CAT_ID":38341,"ELEMENT_SET_NO":999,"REV_AT_EPOCH":75018,"BSTAR":0.00034053586,"MEAN_MOTION_DOT":3.747e-5,"MEAN_MOTION_DDOT":0},{"OBJECT_NAME":"SHIJIAN-16 (SJ-16)","OBJECT_ID":"2013-057A","EPOCH":"2026-03-23T07:18:45.932256","MEAN_MOTION":14.92405344,"ECCENTRICITY":0.00151944,"INCLINATION":74.9727,"RA_OF_ASC_NODE":159.3149,"ARG_OF_PERICENTER":77.1727,"MEAN_ANOMALY":283.1158,"EPHEMERIS_TYPE":0,"CLASSIFICATION_TYPE":"U","NORAD_CAT_ID":39358,"ELEMENT_SET_NO":999,"REV_AT_EPOCH":67353,"BSTAR":0.00041450667,"MEAN_MOTION_DOT":4.228e-5,"MEAN_MOTION_DDOT":0},{"OBJECT_NAME":"SL-4 R/B","OBJECT_ID":"2014-021B","EPOCH":"2026-03-22T20:55:48.093888","MEAN_MOTION":15.39608704,"ECCENTRICITY":0.00963656,"INCLINATION":51.6055,"RA_OF_ASC_NODE":272.9462,"ARG_OF_PERICENTER":151.0335,"MEAN_ANOMALY":209.6045,"EPHEMERIS_TYPE":0,"CLASSIFICATION_TYPE":"U","NORAD_CAT_ID":39679,"ELEMENT_SET_NO":999,"REV_AT_EPOCH":65830,"BSTAR":0.0004330599,"MEAN_MOTION_DOT":0.00020013,"MEAN_MOTION_DDOT":0},{"OBJECT_NAME":"ALOS-2","OBJECT_ID":"2014-029A","EPOCH":"2026-03-23T05:53:01.360896","MEAN_MOTION":14.79427321,"ECCENTRICITY":0.00018918,"INCLINATION":97.9191,"RA_OF_ASC_NODE":180.6452,"ARG_OF_PERICENTER":110.1572,"MEAN_ANOMALY":249.9843,"EPHEMERIS_TYPE":0,"CLASSIFICATION_TYPE":"U","NORAD_CAT_ID":39766,"ELEMENT_SET_NO":999,"REV_AT_EPOCH":63887,"BSTAR":0.00032621729,"MEAN_MOTION_DOT":2.383e-5,"MEAN_MOTION_DDOT":0},{"OBJECT_NAME":"YAOGAN-29","OBJECT_ID":"2015-069A","EPOCH":"2026-03-23T06:55:55.737984","MEAN_MOTION":14.83008759,"ECCENTRICITY":9.314e-5,"INCLINATION":98.0119,"RA_OF_ASC_NODE":110.7534,"ARG_OF_PERICENTER":11.4195,"MEAN_ANOMALY":348.7039,"EPHEMERIS_TYPE":0,"CLASSIFICATION_TYPE":"U","NORAD_CAT_ID":41038,"ELEMENT_SET_NO":999,"REV_AT_EPOCH":55789,"BSTAR":6.1618445e-5,"MEAN_MOTION_DOT":4.47e-6,"MEAN_MOTION_DDOT":0},{"OBJECT_NAME":"ASTRO-H (HITOMI)","OBJECT_ID":"2016-012A","EPOCH":"2026-03-23T04:26:03.650208","MEAN_MOTION":15.10087472,"ECCENTRICITY":0.00095941,"INCLINATION":30.999,"RA_OF_ASC_NODE":269.4558,"ARG_OF_PERICENTER":107.0952,"MEAN_ANOMALY":253.0738,"EPHEMERIS_TYPE":0,"CLASSIFICATION_TYPE":"U","NORAD_CAT_ID":41337,"ELEMENT_SET_NO":999,"REV_AT_EPOCH":55427,"BSTAR":0.00019437401,"MEAN_MOTION_DOT":3.342e-5,"MEAN_MOTION_DDOT":0}]
