ALOS (DAICHI)           
1 28931U 06002A   26082.18617911  .00001471  00000+0  25441-3 0  9994
2 28931  98.1241  38.0761 0000707  93.3836 266.7451 14.69850625 75460
H-2A R/B                
1 28932U 06002B   26082.13505319  .00012747  00000+0  63147-3 0  9991
2 28932  98.2446 230.3198 0052237 194.8231 165.1472 15.16709616 96476
RESURS-DK 1             
1 29228U 06021A   26081.75985181  .00003071  00000+0  18045-3 0  9994
2 29228  69.9339 203.2124 0000695 102.1613 257.9631 15.12829789 89509
CZ-4B R/B               
1 29507U 06046C   26082.13158642  .00006752  00000+0  34031-3 0  9990
2 29507  97.5564 127.0038 0032220 218.7002 141.1922 15.17037835 62087
CZ-2C R/B               
1 31114U 07010B   26082.18188595  .00000140  00000+0  83594-4 0  9998
2 31114  98.3992 194.7853 0057900 254.6080 104.8696 14.20250877981632
COSMO-SKYMED 1          
1 31598U 07023A   26082.23703110  .00003503  00000+0  31255-3 0  9992
2 31598  97.8880 273.3795 0001151  87.0771 273.0582 14.96635290 16933
COSMOS 2428             
1 31792U 07029A   26082.26894980  .00000001  00000+0  26128-4 0  9997
2 31792  70.9441 174.8434 0009606 263.1781  96.8247 14.12947934966011
SL-16 R/B               
1 31793U 07029B   26082.20869689  .00000263  00000+0  16089-3 0  9994
2 31793  70.9756 143.9683 0002467 276.7401 143.3902 14.14841371967287
KORONAS-FOTON           
1 33504U 09003A   26082.24907271  .00017021  00000+0  37574-3 0  9996
2 33504  82.4277 261.7744 0011810 105.6213 254.6339 15.43666791947838
CZ-2C R/B               
1 37731U 11030B   26082.11275413  .00001622  00000+0  21031-3 0  9998
2 37731  97.8569  39.1095 0051350 307.8568  62.4160 14.81269457792087
H-2A R/B                
1 38341U 12025E   26081.84501029  .00003747  00000+0  34054-3 0  9994
2 38341  98.4752  49.9468 0042932 269.7267  89.9031 14.95255350750185
SHIJIAN-16 (SJ-16)      
1 39358U 13057A   26082.30469829  .00004228  00000+0  41451-3 0  9996
2 39358  74.9727 159.3149 0015194  77.1727 283.1158 14.92405344673537
SL-4 R/B                
1 39679U 14021B   26081.87208442  .00020013  00000+0  43306-3 0  9998
2 39679  51.6055 272.9462 0096365 151.0335 209.6045 15.39608704658308
ALOS-2                  
1 39766U 14029A   26082.24515464  .00002383  00000+0  32622-3 0  9999
2 39766  97.9191 180.6452 0001891 110.1572 249.9843 14.79427321638872
YAOGAN-29               
1 41038U 15069A   26082.28883956  .00000447  00000+0  61618-4 0  9994
2 41038  98.0119 110.7534 0000931  11.4195 348.7039 14.83008759557894
ASTRO-H (HITOMI)        
1 41337U 16012A   26082.18476447  .00003342  00000+0  19437-3 0  9995
2 41337  30.9990 269.4558 0009594 107.0952 253.0738 15.10087472554276
